IRIDIUM 116             
1 43072U 17083C   24140.90095312  .00000810  00000+0  28223-3 0  9993
2 43072  86.3939 278.8902 0002159  95.0889 265.0553 14.34222609335480
IRIDIUM 130             
1 43073U 17083D   24140.45063910  .00000018  00000+0 -67535-6 0  9996
2 43073  86.3945 279.2805 0002075  93.5835 266.5598 14.34216317335367
IRIDIUM 151             
1 43074U 17083E   24141.47179599  .00000621  00000+0  21458-3 0  9991
2 43074  86.3942 278.6921 0002402  92.9088 267.2382 14.34218649335532
IRIDIUM 134             
1 43075U 17083F   24140.46332114  .00000043  00000+0  82741-5 0  9996
2 43075  86.3942 279.1117 0001915  95.6986 264.4428 14.34215466335355
IRIDIUM 137             
1 43076U 17083G   24140.47600709  .00000038  00000+0  66657-5 0  9998
2 43076  86.3941 279.1839 0002464 103.7900 256.3570 14.34215540335422
IRIDIUM 141             
1 43077U 17083H   24140.74873457  .00000809  00000+0  28181-3 0  9995
2 43077  86.3937 278.9435 0002201  89.9488 270.1960 14.34219630335467
IRIDIUM 153             
1 43078U 17083J   24141.32882155  .00000623  00000+0  21535-3 0  9996
2 43078  86.3989 247.1511 0002168  73.1229 287.0205 14.34211645336657
IRIDIUM 131             
1 43079U 17083K   24140.87558569  .00000449  00000+0  15310-3 0  9995
2 43079  86.3943 279.0258 0002324  97.0286 263.1174 14.34219329335412
